[{"OBJECT_NAME":"STARLINK-6258","OBJECT_ID":"2023-061AR","EPOCH":"2026-03-08T08:19:15.572928","MEAN_MOTION":15.0253895,"ECCENTRICITY":0.00014546,"INCLINATION":43.0037,"RA_OF_ASC_NODE":191.677,"ARG_OF_PERICENTER":272.9547,"MEAN_ANOMALY":87.1129,"EPHEMERIS_TYPE":0,"CLASSIFICATION_TYPE":"U","NORAD_CAT_ID":56413,"ELEMENT_SET_NO":999,"REV_AT_EPOCH":15670,"BSTAR":9.0067219e-5,"MEAN_MOTION_DOT":1.013e-5,"MEAN_MOTION_DDOT":0},{"OBJECT_NAME":"FENGYUN 1C DEB","OBJECT_ID":"1999-025DDJ","EPOCH":"2026-03-01T18:34:40.606176","MEAN_MOTION":14.6204627,"ECCENTRICITY":0.02210591,"INCLINATION":98.62,"RA_OF_ASC_NODE":179.8313,"ARG_OF_PERICENTER":250.664,"MEAN_ANOMALY":107.0539,"EPHEMERIS_TYPE":0,"CLASSIFICATION_TYPE":"U","NORAD_CAT_ID":33625,"ELEMENT_SET_NO":999,"REV_AT_EPOCH":62545,"BSTAR":0.0012246157,"MEAN_MOTION_DOT":8.674e-5,"MEAN_MOTION_DDOT":0}]
